*******************************************************************************
Ephemeris / WWW_USER Fri Mar  7 10:50:03 2025 Pasadena, USA      / Horizons    
*******************************************************************************
Target body name: (2018 TS1)                      {source: JPL#6}
Center body name: Earth (399)                     {source: DE441}
Center-site name: Mauna Kea
*******************************************************************************
Start time      : A.D. 2018-Sep-03 04:45:00.0000 UT      
Stop  time      : A.D. 2018-Sep-03 15:57:00.0000 UT      
Step-size       : 1 minutes
*******************************************************************************
Target pole/equ : undefined
Target radii    : undefined                                                    
Center geodetic : 204.5278, 19.8260847, 4.21024   {E-lon(deg),Lat(deg),Alt(km)}
Center cylindric: 204.5278, 6006.35451, 2151.0229 {E-lon(deg),Dxy(km),Dz(km)}
Center pole/equ : ITRF93                          {East-longitude positive}
Center radii    : 6378.137, 6378.137, 6356.752 km {Equator_a, b, pole_c}       
Target primary  : Sun
Vis. interferer : MOON (R_eq= 1737.400) km        {source: DE441}
Rel. light bend : Sun                             {source: DE441}
Rel. lght bnd GM: 1.3271E+11 km^3/s^2                                          
Small-body perts: Yes                             {source: SB441-N16}
Atmos refraction: NO (AIRLESS)
RA format       : HMS
Time format     : CAL 
Calendar mode   : Mixed Julian/Gregorian
RTS-only print  : NO       
EOP file        : eop.250306.p250602                                           
EOP coverage    : DATA-BASED 1962-JAN-20 TO 2025-MAR-06. PREDICTS-> 2025-JUN-01
Units conversion: 1 au= 149597870.700 km, c= 299792.458 km/s, 1 day= 86400.0 s 
Table cut-offs 1: Elevation (-90.0deg=NO ),Airmass (>38.000=NO), Daylight (YES)
Table cut-offs 2: Solar elongation (  0.0,180.0=NO ),Local Hour Angle( 0.0=NO )
Table cut-offs 3: RA/DEC angular rate (     0.0=NO )                           
*******************************************************************************
Initial IAU76/J2000 heliocentric ecliptic osculating elements (au, days, deg.):
  EPOCH=  2458397.5 ! 2018-Oct-06.00 (TDB)         Residual RMS= .30565        
   EC= .4232280089037878   QR= .7951431742456924   TP= 2458457.9340165281      
   OM= 356.454891650426    W=  97.01949783285009   IN= 2.243887958983723       
  Equivalent ICRF heliocentric cartesian coordinates (au, au/d):
   X= 1.037748414669454E+00  Y= 2.036665248544260E-01  Z= 1.007134111375925E-01
  VX=-1.028941390482545E-02 VY= 1.387292408111162E-02 VZ= 6.642652492995660E-03
Asteroid physical parameters (km, seconds, rotational period in hours):        
   GM= n.a.                RAD= n.a.               ROTPER= n.a.                
   H= 25.7                 G= .150                 B-V= n.a.                   
                           ALBEDO= n.a.            STYP= n.a.                  
*******************************************************************************
 Date__(UT)__HR:MN     R.A._________(ICRF)_________DEC
******************************************************
$$SOE
 2018-Sep-03 08:51     00 39 15.780922 +02 34 55.50899
 2018-Sep-03 08:52     00 39 15.792192 +02 34 55.80279
 2018-Sep-03 08:53     00 39 15.803434 +02 34 56.09657
 2018-Sep-03 08:54     00 39 15.814649 +02 34 56.39034
 2018-Sep-03 08:55     00 39 15.825836 +02 34 56.68409
 2018-Sep-03 08:56     00 39 15.836996 +02 34 56.97783
 2018-Sep-03 08:57     00 39 15.848128 +02 34 57.27156
 2018-Sep-03 08:58     00 39 15.859233 +02 34 57.56528
 2018-Sep-03 08:59     00 39 15.870312 +02 34 57.85899
 2018-Sep-03 09:00     00 39 15.881363 +02 34 58.15268
 2018-Sep-03 09:01     00 39 15.892387 +02 34 58.44636
 2018-Sep-03 09:02     00 39 15.903385 +02 34 58.74002
 2018-Sep-03 09:03     00 39 15.914356 +02 34 59.03368
 2018-Sep-03 09:04     00 39 15.925300 +02 34 59.32731
 2018-Sep-03 09:05     00 39 15.936218 +02 34 59.62094
 2018-Sep-03 09:06     00 39 15.947109 +02 34 59.91455
 2018-Sep-03 09:07     00 39 15.957975 +02 35 00.20815
 2018-Sep-03 09:08     00 39 15.968814 +02 35 00.50174
 2018-Sep-03 09:09     00 39 15.979627 +02 35 00.79531
 2018-Sep-03 09:10     00 39 15.990413 +02 35 01.08887
 2018-Sep-03 09:11     00 39 16.001175 +02 35 01.38241
 2018-Sep-03 09:12     00 39 16.011910 +02 35 01.67594
 2018-Sep-03 09:13     00 39 16.022620 +02 35 01.96946
 2018-Sep-03 09:14     00 39 16.033304 +02 35 02.26296
 2018-Sep-03 09:15     00 39 16.043962 +02 35 02.55645
 2018-Sep-03 09:16     00 39 16.054596 +02 35 02.84992
 2018-Sep-03 09:17     00 39 16.065204 +02 35 03.14338
 2018-Sep-03 09:18     00 39 16.075787 +02 35 03.43683
 2018-Sep-03 09:19     00 39 16.086345 +02 35 03.73026
 2018-Sep-03 09:20     00 39 16.096878 +02 35 04.02368
 2018-Sep-03 09:21     00 39 16.107386 +02 35 04.31708
 2018-Sep-03 09:22     00 39 16.117870 +02 35 04.61047
 2018-Sep-03 09:23     00 39 16.128329 +02 35 04.90384
 2018-Sep-03 09:24     00 39 16.138763 +02 35 05.19720
 2018-Sep-03 09:25     00 39 16.149174 +02 35 05.49054
 2018-Sep-03 09:26     00 39 16.159560 +02 35 05.78387
 2018-Sep-03 09:27     00 39 16.169921 +02 35 06.07718
 2018-Sep-03 09:28     00 39 16.180259 +02 35 06.37048
 2018-Sep-03 09:29     00 39 16.190573 +02 35 06.66376
 2018-Sep-03 09:30     00 39 16.200863 +02 35 06.95703
 2018-Sep-03 09:31     00 39 16.211130 +02 35 07.25028
 2018-Sep-03 09:32     00 39 16.221373 +02 35 07.54352
 2018-Sep-03 09:33     00 39 16.231592 +02 35 07.83674
 2018-Sep-03 09:34     00 39 16.241788 +02 35 08.12995
 2018-Sep-03 09:35     00 39 16.251961 +02 35 08.42314
 2018-Sep-03 09:36     00 39 16.262111 +02 35 08.71631
 2018-Sep-03 09:37     00 39 16.272238 +02 35 09.00947
 2018-Sep-03 09:38     00 39 16.282341 +02 35 09.30262
 2018-Sep-03 09:39     00 39 16.292423 +02 35 09.59574
 2018-Sep-03 09:40     00 39 16.302481 +02 35 09.88886
 2018-Sep-03 09:41     00 39 16.312517 +02 35 10.18195
 2018-Sep-03 09:42     00 39 16.322531 +02 35 10.47503
 2018-Sep-03 09:43     00 39 16.332522 +02 35 10.76809
 2018-Sep-03 09:44     00 39 16.342491 +02 35 11.06114
 2018-Sep-03 09:45     00 39 16.352438 +02 35 11.35417
 2018-Sep-03 09:46     00 39 16.362364 +02 35 11.64719
 2018-Sep-03 09:47     00 39 16.372267 +02 35 11.94019
 2018-Sep-03 09:48     00 39 16.382149 +02 35 12.23317
 2018-Sep-03 09:49     00 39 16.392009 +02 35 12.52613
 2018-Sep-03 09:50     00 39 16.401848 +02 35 12.81908
 2018-Sep-03 09:51  m  00 39 16.411665 +02 35 13.11201
 2018-Sep-03 09:52  m  00 39 16.421461 +02 35 13.40493
 2018-Sep-03 09:53  m  00 39 16.431236 +02 35 13.69783
 2018-Sep-03 09:54  m  00 39 16.440990 +02 35 13.99071
 2018-Sep-03 09:55  m  00 39 16.450724 +02 35 14.28357
 2018-Sep-03 09:56  m  00 39 16.460436 +02 35 14.57642
 2018-Sep-03 09:57  m  00 39 16.470129 +02 35 14.86925
 2018-Sep-03 09:58  m  00 39 16.479800 +02 35 15.16207
 2018-Sep-03 09:59  m  00 39 16.489452 +02 35 15.45486
 2018-Sep-03 10:00  m  00 39 16.499083 +02 35 15.74764
 2018-Sep-03 10:01  m  00 39 16.508694 +02 35 16.04041
 2018-Sep-03 10:02  m  00 39 16.518285 +02 35 16.33315
 2018-Sep-03 10:03  m  00 39 16.527856 +02 35 16.62588
 2018-Sep-03 10:04  m  00 39 16.537408 +02 35 16.91859
 2018-Sep-03 10:05  m  00 39 16.546940 +02 35 17.21128
 2018-Sep-03 10:06  m  00 39 16.556452 +02 35 17.50396
 2018-Sep-03 10:07  m  00 39 16.565945 +02 35 17.79661
 2018-Sep-03 10:08  m  00 39 16.575420 +02 35 18.08925
 2018-Sep-03 10:09  m  00 39 16.584875 +02 35 18.38187
 2018-Sep-03 10:10  m  00 39 16.594311 +02 35 18.67448
 2018-Sep-03 10:11  m  00 39 16.603728 +02 35 18.96706
 2018-Sep-03 10:12  m  00 39 16.613127 +02 35 19.25963
 2018-Sep-03 10:13  m  00 39 16.622507 +02 35 19.55218
 2018-Sep-03 10:14  m  00 39 16.631868 +02 35 19.84472
 2018-Sep-03 10:15  m  00 39 16.641212 +02 35 20.13723
 2018-Sep-03 10:16  m  00 39 16.650537 +02 35 20.42973
 2018-Sep-03 10:17  m  00 39 16.659844 +02 35 20.72220
 2018-Sep-03 10:18  m  00 39 16.669134 +02 35 21.01466
 2018-Sep-03 10:19  m  00 39 16.678405 +02 35 21.30711
 2018-Sep-03 10:20  m  00 39 16.687660 +02 35 21.59953
 2018-Sep-03 10:21  m  00 39 16.696896 +02 35 21.89193
 2018-Sep-03 10:22  m  00 39 16.706115 +02 35 22.18432
 2018-Sep-03 10:23  m  00 39 16.715317 +02 35 22.47669
 2018-Sep-03 10:24  m  00 39 16.724502 +02 35 22.76904
 2018-Sep-03 10:25  m  00 39 16.733670 +02 35 23.06137
 2018-Sep-03 10:26  m  00 39 16.742821 +02 35 23.35368
 2018-Sep-03 10:27  m  00 39 16.751956 +02 35 23.64597
 2018-Sep-03 10:28  m  00 39 16.761074 +02 35 23.93825
 2018-Sep-03 10:29  m  00 39 16.770175 +02 35 24.23050
 2018-Sep-03 10:30  m  00 39 16.779261 +02 35 24.52274
 2018-Sep-03 10:31  m  00 39 16.788330 +02 35 24.81496
 2018-Sep-03 10:32  m  00 39 16.797383 +02 35 25.10716
 2018-Sep-03 10:33  m  00 39 16.806420 +02 35 25.39934
 2018-Sep-03 10:34  m  00 39 16.815442 +02 35 25.69150
 2018-Sep-03 10:35  m  00 39 16.824448 +02 35 25.98364
 2018-Sep-03 10:36  m  00 39 16.833438 +02 35 26.27576
 2018-Sep-03 10:37  m  00 39 16.842413 +02 35 26.56786
 2018-Sep-03 10:38  m  00 39 16.851373 +02 35 26.85995
 2018-Sep-03 10:39  m  00 39 16.860318 +02 35 27.15201
 2018-Sep-03 10:40  m  00 39 16.869248 +02 35 27.44406
 2018-Sep-03 10:41  m  00 39 16.878164 +02 35 27.73609
 2018-Sep-03 10:42  m  00 39 16.887065 +02 35 28.02809
 2018-Sep-03 10:43  m  00 39 16.895951 +02 35 28.32008
 2018-Sep-03 10:44  m  00 39 16.904823 +02 35 28.61205
 2018-Sep-03 10:45  m  00 39 16.913680 +02 35 28.90400
 2018-Sep-03 10:46  m  00 39 16.922524 +02 35 29.19592
 2018-Sep-03 10:47  m  00 39 16.931354 +02 35 29.48783
 2018-Sep-03 10:48  m  00 39 16.940170 +02 35 29.77972
 2018-Sep-03 10:49  m  00 39 16.948972 +02 35 30.07159
 2018-Sep-03 10:50  m  00 39 16.957761 +02 35 30.36344
 2018-Sep-03 10:51  m  00 39 16.966536 +02 35 30.65527
 2018-Sep-03 10:52  m  00 39 16.975298 +02 35 30.94708
 2018-Sep-03 10:53  m  00 39 16.984048 +02 35 31.23887
